OBJECT_NAME,OBJECT_ID,EPOCH,MEAN_MOTION,ECCENTRICITY,INCLINATION,RA_OF_ASC_NODE,ARG_OF_PERICENTER,MEAN_ANOMALY,EPHEMERIS_TYPE,CLASSIFICATION_TYPE,NORAD_CAT_ID,ELEMENT_SET_NO,REV_AT_EPOCH,BSTAR,MEAN_MOTION_DOT,MEAN_MOTION_DDOT
ENMAP,2022-033C,2026-07-14T20:15:23.913792,14.74939325,.0001304,97.9796,277.7000,79.0652,281.0703,0,U,52159,999,23073,-.15511E-4,-.154E-5,0
ARCSAT-1,2022-033E,2026-07-14T19:33:56.608992,15.54276566,.0006298,97.2762,288.5112,98.1108,262.0860,0,U,52161,999,23999,.11503E-3,.7415E-4,0
GLOBAL-18,2022-034B,2026-07-14T04:46:49.995264,15.47194583,.00044186,52.9810,127.4495,21.1533,338.9655,0,U,52196,999,24114,.27601055E-3,.1385E-3,0
GAOFEN-3 03,2022-035A,2026-07-14T20:12:37.707840,14.42217831,.0001758,98.4061,204.0210,88.9221,271.2170,0,U,52200,999,22483,-.99056E-5,-.76E-6,0
DAQI-1,2022-039A,2026-07-14T21:02:51.288000,14.57692045,.0003922,98.1483,134.1575,148.8126,211.3306,0,U,52257,999,22597,.30311E-6,-.44E-6,0
BRO-6,2022-047AE,2026-07-14T19:20:31.031808,15.52547585,.0002809,97.3395,287.4294,312.7796,47.3220,0,U,52422,999,23543,.44322E-3,.27149E-3,0
JILIN-1 GAOFEN 3D27,2022-048B,2026-07-14T20:23:28.705056,15.82979792,.00052,97.5728,312.4557,244.9408,115.1321,0,U,52444,999,23384,.58724E-3,.126059E-2,0
JILIN-1 GAOFEN 3D28,2022-048C,2026-07-14T20:15:52.158816,15.87983639,.0004982,97.5663,312.7488,242.3564,117.7202,0,U,52445,999,23390,.63148E-3,.173192E-2,0
VIGORIDE-3,2022-057AE,2026-07-14T19:07:51.290688,15.27546674,.0008924,97.6639,336.5131,36.0970,324.0869,0,U,52760,999,22937,.10999E-3,.2887E-4,0
ION SCV-006,2022-057AF,2026-07-14T10:06:28.786464,15.45909731,.001684,97.6127,345.3658,20.3713,339.8204,0,U,52761,999,23032,.15013251E-3,.7241E-4,0
SHERPA-AC1,2022-057AH,2026-07-14T10:05:09.508416,15.36624888,.00072697,97.6714,345.7931,6.5329,353.6008,0,U,52763,999,22988,.12343599E-3,.4329E-4,0
OMNI-L2,2022-057AR,2026-07-14T16:20:32.167104,14.81437168,.0005622,97.4703,256.1907,222.5245,137.5534,0,U,52771,999,22446,.8751E-4,.638E-5,0
STEP CUBE LAB-II,2022-065D,2026-07-14T19:53:52.065312,14.63343334,.0007423,98.2255,339.6508,303.7851,56.2643,0,U,52897,999,21554,.10847E-3,.512E-5,0
RANDEV,2022-065E,2026-07-14T21:23:18.873888,14.63731307,.0006762,98.2242,340.0766,304.3119,55.7443,0,U,52898,999,21530,.79333E-4,.365E-5,0
SNUGLITE-II,2022-065F,2026-07-14T08:42:22.788000,14.64393473,.00062747,98.2232,340.1503,303.7427,56.3177,0,U,52899,999,21497,.91901996E-4,.437E-5,0
MIMAN,2022-065G,2026-07-14T20:06:12.445056,14.61871556,.0006434,98.2295,338.1861,305.1782,54.8816,0,U,52900,999,21448,.57162E-4,.238E-5,0
STARLINK-4362,2022-077A,2026-07-14T10:43:48.564768,15.05654666,.00012442,97.2853,12.9386,97.4148,262.7221,0,U,53043,999,21998,.4681493E-5,.11E-6,0
LARES-2,2022-080A,2026-07-11T06:32:52.952640,6.38965058,.00051703,70.1562,297.0691,331.4390,28.5953,0,U,53105,999,9320,0,-.16E-6,0
GREENCUBE (IO-117),2022-080E,2026-07-14T06:21:38.972160,6.42583348,.00090541,70.1411,288.8296,283.5288,76.4363,0,U,53109,999,9380,0,-.3E-7,0
STARLINK-4410,2022-084R,2026-07-14T20:00:01.999008,15.43165594,.0001431,97.6013,257.8996,87.6870,105.9016,0,U,53204,999,589,-.15527E-1,-.633858E-2,0
COSMOS 2558,2022-089A,2026-07-14T20:29:01.872960,15.81614050,.0004132,97.2253,301.1727,229.4821,130.6089,0,U,53323,999,22219,.50585E-3,.101581E-2,0
TECMS,2022-090A,2026-07-14T20:21:58.464576,15.21232003,.0005522,97.3127,263.1728,86.3235,273.8632,0,U,53346,999,21901,.91081E-4,.1966E-4,0
DONGPO 02,2022-098J,2026-07-14T19:56:37.732128,15.81051124,.0004478,97.5548,329.5581,215.8612,144.2355,0,U,53452,999,21915,.5559E-3,.108904E-2,0
DONGPO 01,2022-098K,2026-07-14T20:47:24.552096,15.78045794,.0002952,97.5626,330.0357,209.5212,150.5887,0,U,53453,999,21911,.5013E-3,.85476E-3,0
STARLINK-4400,2022-099D,2026-07-14T19:48:06.666624,15.05658660,.0001534,97.2839,313.3765,125.3304,234.8067,0,U,53468,999,21510,.14727E-4,.156E-5,0
STARLINK-4621,2022-105AE,2026-07-14T15:05:00.223584,15.05657449,.0001736,97.2833,73.2066,93.3539,266.7887,0,U,53676,999,21233,-.11971E-4,-.229E-5,0
SHERPA-LTC2,2022-107BG,2026-07-14T10:53:51.425088,14.69914994,.03928365,53.2368,104.8874,302.6373,53.7262,0,U,53754,999,20655,.12009761E-3,.2106E-4,0
CENTISPACE-1 S3,2022-108A,2026-07-14T18:32:24.973728,14.61282969,.0010745,53.5337,301.1901,63.6498,296.5580,0,U,53757,999,20556,.61759E-4,.117E-5,0
CENTISPACE-1 S4,2022-108B,2026-07-14T17:51:09.403776,14.61971665,.0010047,53.5312,298.6951,53.0361,307.1533,0,U,53758,999,20559,.6882E-4,.157E-5,0
BLUEWALKER-3,2022-111AL,2026-07-14T11:09:18.021024,15.38604732,.00045555,53.2288,265.8794,263.3049,96.7438,0,U,53807,999,21440,.10856871E-3,.3807E-4,0
