ENMAP                   
1 52159U 22033C   26195.84402678 -.00000154  00000+0 -15511-4 0  9992
2 52159  97.9796 277.7000 0001304  79.0652 281.0703 14.74939325230734
ARCSAT-1                
1 52161U 22033E   26195.81523853  .00007415  00000+0  11503-3 0  9992
2 52161  97.2762 288.5112 0006298  98.1108 262.0860 15.54276566239992
GLOBAL-18               
1 52196U 22034B   26195.19918976  .00013850  00000+0  27601-3 0  9992
2 52196  52.9810 127.4495 0004418  21.1533 338.9655 15.47194583241142
GAOFEN-3 03             
1 52200U 22035A   26195.84210310 -.00000076  00000+0 -99056-5 0  9991
2 52200  98.4061 204.0210 0001758  88.9221 271.2170 14.42217831224831
DAQI-1                  
1 52257U 22039A   26195.87698250 -.00000044  00000+0  30311-6 0  9997
2 52257  98.1483 134.1575 0003922 148.8126 211.3306 14.57692045225972
BRO-6                   
1 52422U 22047AE  26195.80591472  .00027149  00000+0  44322-3 0  9999
2 52422  97.3395 287.4294 0002809 312.7796  47.3220 15.52547585235435
JILIN-1 GAOFEN 3D27     
1 52444U 22048B   26195.84963779  .00126059  00000+0  58724-3 0  9992
2 52444  97.5728 312.4557 0005200 244.9408 115.1321 15.82979792233847
JILIN-1 GAOFEN 3D28     
1 52445U 22048C   26195.84435369  .00173192  00000+0  63148-3 0  9998
2 52445  97.5663 312.7488 0004982 242.3564 117.7202 15.87983639233906
VIGORIDE-3              
1 52760U 22057AE  26195.79712142  .00002887  00000+0  10999-3 0  9997
2 52760  97.6639 336.5131 0008924  36.0970 324.0869 15.27546674229374
ION SCV-006             
1 52761U 22057AF  26195.42116651  .00007241  00000+0  15013-3 0  9992
2 52761  97.6127 345.3658 0016840  20.3713 339.8204 15.45909731230327
SHERPA-AC1              
1 52763U 22057AH  26195.42024894  .00004329  00000+0  12344-3 0  9999
2 52763  97.6714 345.7931 0007269   6.5329 353.6008 15.36624888229885
OMNI-L2                 
1 52771U 22057AR  26195.68092786  .00000638  00000+0  87510-4 0  9998
2 52771  97.4703 256.1907 0005622 222.5245 137.5534 14.81437168224460
STEP CUBE LAB-II        
1 52897U 22065D   26195.82907483  .00000512  00000+0  10847-3 0  9990
2 52897  98.2255 339.6508 0007423 303.7851  56.2643 14.63343334215548
RANDEV                  
1 52898U 22065E   26195.89119067  .00000365  00000+0  79333-4 0  9993
2 52898  98.2242 340.0766 0006762 304.3119  55.7443 14.63731307215303
SNUGLITE-II             
1 52899U 22065F   26195.36276375  .00000437  00000+0  91902-4 0  9998
2 52899  98.2232 340.1503 0006274 303.7427  56.3177 14.64393473214978
MIMAN                   
1 52900U 22065G   26195.83764404  .00000238  00000+0  57162-4 0  9997
2 52900  98.2295 338.1861 0006434 305.1782  54.8816 14.61871556214481
STARLINK-4362           
1 53043U 22077A   26195.44708987  .00000011  00000+0  46815-5 0  9993
2 53043  97.2853  12.9386 0001244  97.4148 262.7221 15.05654666219989
LARES-2                 
1 53105U 22080A   26192.27283510 -.00000016  00000+0  00000+0 0  9990
2 53105  70.1562 297.0691 0005170 331.4390  28.5953  6.38965058 93203
GREENCUBE (IO-117)      
1 53109U 22080E   26195.26503440 -.00000003  00000+0  00000+0 0  9999
2 53109  70.1411 288.8296 0009054 283.5288  76.4363  6.42583348 93803
STARLINK-4410           
1 53204U 22084R   26195.83335647 -.00633858  00000+0 -15527-1 0  9997
2 53204  97.6013 257.8996 0001431  87.6870 105.9016 15.43165594  5890
COSMOS 2558             
1 53323U 22089A   26195.85349390  .00101581  00000+0  50585-3 0  9992
2 53323  97.2253 301.1727 0004132 229.4821 130.6089 15.81614050222199
TECMS                   
1 53346U 22090A   26195.84859334  .00001966  00000+0  91081-4 0  9995
2 53346  97.3127 263.1728 0005522  86.3235 273.8632 15.21232003219015
DONGPO 02               
1 53452U 22098J   26195.83099227  .00108904  00000+0  55590-3 0  9991
2 53452  97.5548 329.5581 0004478 215.8612 144.2355 15.81051124219150
DONGPO 01               
1 53453U 22098K   26195.86625639  .00085476  00000+0  50130-3 0  9990
2 53453  97.5626 330.0357 0002952 209.5212 150.5887 15.78045794219115
STARLINK-4400           
1 53468U 22099D   26195.82507716  .00000156  00000+0  14727-4 0  9993
2 53468  97.2839 313.3765 0001534 125.3304 234.8067 15.05658660215106
STARLINK-4621           
1 53676U 22105AE  26195.62847481 -.00000229  00000+0 -11971-4 0  9997
2 53676  97.2833  73.2066 0001736  93.3539 266.7887 15.05657449212335
SHERPA-LTC2             
1 53754U 22107BG  26195.45406742  .00002106  00000+0  12010-3 0  9996
2 53754  53.2368 104.8874 0392836 302.6373  53.7262 14.69914994206559
CENTISPACE-1 S3         
1 53757U 22108A   26195.77251127  .00000117  00000+0  61759-4 0  9995
2 53757  53.5337 301.1901 0010745  63.6498 296.5580 14.61282969205564
CENTISPACE-1 S4         
1 53758U 22108B   26195.74385884  .00000157  00000+0  68820-4 0  9991
2 53758  53.5312 298.6951 0010047  53.0361 307.1533 14.61971665205598
BLUEWALKER-3            
1 53807U 22111AL  26195.46479191  .00003807  00000+0  10857-3 0  9995
2 53807  53.2288 265.8794 0004555 263.3049  96.7438 15.38604732214407
